{
    "links": {
        "self": "http://www.neowsapp.com/rest/v1/neo/3662962?api_key=iIulBulltgU6a56xZRHN4H3l9WmuAYTsLGpBGhQ2"
    },
    "id": "3662962",
    "neo_reference_id": "3662962",
    "name": "(2014 DR112)",
    "designation": "2014 DR112",
    "nasa_jpl_url": "http://ssd.jpl.nasa.gov/sbdb.cgi?sstr=3662962",
    "absolute_magnitude_h": 23.2,
    "estimated_diameter": {
        "kilometers": {
            "estimated_diameter_min": 0.0608912622,
            "estimated_diameter_max": 0.1361570015
        },
        "meters": {
            "estimated_diameter_min": 60.8912622106,
            "estimated_diameter_max": 136.1570015386
        },
        "miles": {
            "estimated_diameter_min": 0.0378360645,
            "estimated_diameter_max": 0.0846040122
        },
        "feet": {
            "estimated_diameter_min": 199.7744887109,
            "estimated_diameter_max": 446.7093369279
        }
    },
    "is_potentially_hazardous_asteroid": false,
    "close_approach_data": [
        {
            "close_approach_date": "2014-02-12",
            "close_approach_date_full": "2014-Feb-12 02:10",
            "epoch_date_close_approach": 1392171000000,
            "relative_velocity": {
                "kilometers_per_second": "6.9135193167",
                "kilometers_per_hour": "24888.6695399797",
                "miles_per_hour": "15464.8513594391"
            },
            "miss_distance": {
                "astronomical": "0.2627765877",
                "lunar": "102.2200926153",
                "kilometers": "39310817.805788199",
                "miles": "24426609.5075831862"
            },
            "orbiting_body": "Earth"
        }
    ],
    "orbital_data": {
        "orbit_id": "7",
        "orbit_determination_date": "2017-04-06 08:42:12",
        "first_observation_date": "2014-02-26",
        "last_observation_date": "2014-03-11",
        "data_arc_in_days": 13,
        "observations_used": 16,
        "orbit_uncertainty": "8",
        "minimum_orbit_intersection": ".247383",
        "jupiter_tisserand_invariant": "4.063",
        "epoch_osculation": "2456716.5",
        "eccentricity": ".304051447890248",
        "semi_major_axis": "1.739700482552049",
        "inclination": "13.27710416922728",
        "ascending_node_longitude": "334.1788263006528",
        "orbital_period": "838.1276199175197",
        "perihelion_distance": "1.210742031936735",
        "perihelion_argument": "146.5878936971089",
        "aphelion_distance": "2.268658933167362",
        "perihelion_time": "2456669.883613692306",
        "mean_anomaly": "20.02308320589811",
        "mean_motion": ".4295288586664495",
        "equinox": "J2000",
        "orbit_class": {
            "orbit_class_type": "AMO",
            "orbit_class_description": "Near-Earth asteroid orbits similar to that of 1221 Amor",
            "orbit_class_range": "1.017 AU < q (perihelion) < 1.3 AU"
        }
    },
    "is_sentry_object": false
}